{
  "$": {
    "xmlns:xsd":"http://www.w3.org/2001/XMLSchema",
    "xmlns:xsi":"http://www.w3.org/2001/XML-Schema-instance",
    "version":"1.2",
    "xsi:noNamespaceSchemaLocation":"http://aviationweather.gov/adds/schema/metar1_2.xsd"
    },
  "request_index":["638890386"],
  "data_source":[
    {"$":
      {"name":"metars"}
    }
  ],
  "request":[
    {"$":
      {"type":"retrieve"}
    }
  ],
  "errors":[""],
  "warnings":[""],
  "time_taken_ms":["9"],
  "data":[
    {
    "$":{"num_results":"1"
    },
      "METAR":[
        {
          "raw_text":["KHPN 140256Z 31017G24KT 10SM CLR M02/M09 A2992 RMK AO2 SLP139 T10171094 53013"
          ],
        "station_id":["KHPN"],
        "observation_time":["2017-02-14T02:56:00Z"],
        "latitude":["41.07"],
        "longitude":["-73.7"],
        "temp_c":["-1.7"],
        "dewpoint_c":["-9.4"],
        "wind_dir_degrees":["310"],
        "wind_speed_kt":["17"],
        "wind_gust_kt":["24"],
        "visibility_statute_mi":["10.0"],
        "altim_in_hg":["29.920275"],
        "sea_level_pressure_mb":["1013.9"],
        "quality_control_flags":[{"auto_station":["TRUE"]}],
        "sky_condition":[{"$":{"sky_cover":"CLR"}}],
        "flight_category":["VFR"],
        "three_hr_pressure_tendency_mb":["1.3"],
        "metar_type":["METAR"],
        "elevation_m":["121.0"]
        }
      ]
    }
  ]

}
